Store Name,City,Street,Phone,Working Hours
Sport Vision VU Vukovar,VUKOVAR,36 Priljevo Street,,
Sport Vision DU Dubrovnik,MLINI,"Dr. Franje Tuđmana Promenade 2A, Srebreno, (1st floor)",091/6046-106,
Sport Vision VK Vinkovci,VINKOVCI,"Duga Ulica 26, (1st floor)",091/2214-342,
Sport Vision VK Stop Shop Vinkovci,VINKOVCI,Alojzija Stepinca Street 201,,
Sport Vision OS Mall Osijek,OSIJEK,"Leopolda B. Mandića 50 a, (ground floor)",091/2214-330,
Sport Vision DJ Đakovo,ĐAKOVO,King Tomislav Street 8,091/2214-386,
Sport Vision Metković,METKOVIĆ,Splitska Street 1,095/3475-448,
Sport Vision SB Slavonski Brod,SLAVONSKI BROD,"Josipa Rimac 7, (1st floor)",091/2214-317,
Sport Vision PŽ Požega,POŽEGA,Zagrebacka Street 52,091/2214-379,
Sport Vision VT Virovitica,VIROVITICA,"Osječka 6, (ground floor - retail park)",091/6228-706,
Sport Vision VT Stop Shop Virovitica,VIROVITICA,Ote Horvat Street 1,095/3949-386,
Sport Vision DP Outlet Dugopolje,DUGOPOLJE,"Sveti Leopolda Mandića 17, 21204",091/2214-357,
Sport Vision DA Daruvar,DARUVAR,Augusta Šenoe Street 2B,,
Sport Vision ST CCO,SPLIT,Vukovarska 207,091/2214-319,
Sport Vision ST Mall of Split,SPLIT,"Josipa Jovića 93, (2nd floor)",091/2214-352,
Sport Vision Shopping Center Bjelovar,BJELOVAR,"Southern bypass 2A, (ground floor - retail park)",091/2214-350,
Sport Vision KC Koprivnica,KOPRIVNICA,"Gospodarska Street 1, (ground floor in the center)",091/2214-334,
Sport Vision ŠI Šibenik,ŠIBENIK,"Velimira Škorpika Street 23, (ground floor)",091/6024-629,
Sport Vision SI Sisak,SISAK,"Zagrebačka ulica 49H, (ground floor - retail park)",091/2214-343,
Sport Vision Ludbreg,LUDBREG,Rudolf Fizira 3,095/3976-476,
Retail SV Stop shop ČK Čakovec,ČAKOVEC,Street 34. Engineering Battalion 2,,
Sport Vision ČK Čakovec,ČAKOVEC,"TC GALERIJA SJEVER, SVETOJELENSKA 25",091/2214-389,
Sport Vision VŽ Lumini,DONJI KNEGINEC,"Grada Lipika 15, (ground floor in the center)",091/2214-331,
SV NM Novi Marof,NOVI MAROF,Možđenec 150/4,,
Sport Vision VŽ Supernova,VARAŽDIN,Optujska Street 171 A/B/C,091/2214-326,
Sport Vision ZG CCO East,ZAGREB,"Slavonska avenija 11d, (ground floor)",091/2214-325,
Sport Vision ZG Branimirova,ZAGREB,Kneza Branimira Street 119b,095/3582-426,
Sport Vision Garden Mall,ZAGREB-DUBRAVA,Rudolf Kolaka Street 14,095/3126-694,
Sport Vision ZG Avenue Mall,ZAGREB,"Avenija Dubrovnik 16, (2nd floor)",091/2214-320,
Sport Vision Plitvice Mall,RAKOVICA,"Čatrnja 172, Drežnik",095/3170-584,
The North Face Retail,ZAGREB,Vice Vukova 6,091/2214-498,
Retail ZG Arena Multibrand,ZAGREB,"Vice Vukova 6, (1st floor)",091/2214-310,
Sport Vision ZG CCO West,ZAGREB,Jankomir 33,091/2214-327,
Sport Vision ZG King Cross,ZAGREB,"Velimira Škorpika 34, (ground floor)",091/2214-373,
Sport Vision ZD Hey Park,ZADAR,Matije Gupca Street 59,,
Sport Vision ZD Supernova,ZADAR,Akcija Street Maslenica 1,091/2214-387,
Sport Vision Zabok City Park,ZABOK,Life Square 10,091/6032-668,
Sport Vision Gospić Stop Shop,GOSPIĆ,Budačka Street 100,,
Sport Vision KR Stop Shop Krapina,KRAPINA,Pristava Krapinska 63,,
Sport Vision KA Karlovac,KARLOVAC,Većeslava Holjevca 12 entrance (ground floor),091/2214-363,
Sport Vision RI Rijeka,RIJEKA,"Janka Polića Kamova 81A, (3rd floor)",091/6040-827,
Sport Vision RI Martinkovac,RIJEKA,Martinkovac 129,091/2214-412,
Sport Vision LA Labin,LABIN,Strmac 303,,
Sport Vision City Mall Pula,PULA,101 Roman Centuriation Street,091/2214-353,
Sport Vision Max City Pula,PULA,Stands 14 A,091/2214-001,
Sport Vision PA Pazin,PAZIN,Istrian Folklore Street 17,,
